施設名,住所,電話番号(代表),lat,lng
宮本第一保育園,〒273-0003千葉県船橋市宮本6-26-27,047-442-5639,35.6979334,139.9956694
宮本第二保育園,〒273-0003千葉県船橋市宮本8-9-10,047-423-1304,35.691472,140.0001182
若松保育園,〒273-0013千葉県船橋市若松2-6-3,047-433-4041,35.6794751,139.9943675
湊町保育園,〒273-0011千葉県船橋市湊町1-16-23,047-431-4961,35.6928239,139.9851805
千鳥保育園,〒273-0004千葉県船橋市南本町13-1,047-431-5061,35.6980868,139.9770171
中央保育園,〒273-0005千葉県船橋市本町4-17-21,047-422-4762,35.6998991,139.9889845
本町保育園,〒273-0005千葉県船橋市本町6-7-18,047-424-7011,35.70517,139.9874208
海神第一保育園,〒273-0021千葉県船橋市海神2-13-25,047-422-2462,35.7043217,139.9815509
海神第二保育園,〒273-0005千葉県船橋市本町1-23-7,047-435-0783,35.7000989,139.9812819
西船保育園,〒273-0031千葉県船橋市西船6-1-24,047-333-8187,35.7139354,139.9581998
本中山保育園,〒273-0035千葉県船橋市本中山5-6-1,047-333-6451,35.7072309,139.9426067
若葉保育園,〒273-0047千葉県船橋市藤原7-41-1,047-439-0472,35.7440446,139.9880734
行田保育園,〒273-0044千葉県船橋市行田3-1-2,047-439-5000,35.7169455,139.9696164
夏見第一保育園,〒273-0865千葉県船橋市夏見4-10-26,047-422-5198,35.7129007,139.9920202
夏見第二保育園,〒273-0866千葉県船橋市夏見台4-1-1,047-439-6231,35.722853,139.9920667
高根保育園,〒274-0814千葉県船橋市新高根4-19-2,047-463-1418,35.7318855,140.0268915
金杉台保育園,〒273-0852千葉県船橋市金杉台1-1-6,047-447-0022,35.7352168,140.0113724
二和保育園,〒274-0805千葉県船橋市二和東5-50-1,047-447-0801,35.7515137,140.0253584
三山保育園,〒274-0072千葉県船橋市三山6-26-26,047-476-2701,35.701377,140.0580441
二宮保育園,〒274-0825千葉県船橋市前原西6-1-12,047-472-1097,35.7027062,140.0254386
習志野台第一保育園,〒274-0063千葉県船橋市習志野台2-50-3,047-465-4124,35.7233446,140.0461733
習志野台第二保育園,〒274-0063千葉県船橋市習志野台6-7-1,047-464-3818,35.7263674,140.0500546
高根台保育園,〒274-0065千葉県船橋市高根台2-2-2,047-466-2611,35.7330412,140.0322415
緑台保育園,〒274-0818千葉県船橋市緑台2-4-11,047-447-9122,35.7285377,140.0138886
芝山第一保育園,〒274-0816千葉県船橋市芝山3-10-4,047-462-7575,35.7178372,140.0194626
小室保育園,〒270-1471千葉県船橋市小室町3305,047-457-1717,35.7880929,140.0760014
浜町保育園,〒273-0012千葉県船橋市浜町1-1-1,047-431-3262,35.6912348,139.9894156
めぐみ保育園,〒274-0077　船橋市薬円台4-6-1,電話：047-466-0566 FAX：047-463-1881,35.7123211,140.047
中山あけぼの保育園,〒273-0035　船橋市本中山3-19-3,電話：047-334-9950 FAX：047-334-8861,35.7132486,139.9422791
ひばり保育園,〒274-0064　船橋市松が丘1-33-4,電話：047-466-5915 FAX：047-466-5918,35.7353628,140.0400935
杉の子保育園,〒274-0814　船橋市新高根3-8-1,電話：047-465-2336 FAX：047-461-7260,35.7295772,140.0228317
しらゆり保育園,〒273-0864　船橋市北本町2-47-7,電話：047-422-5051 FAX：047-422-0415,35.7206835,139.984086
あすなろ保育園,〒274-0806　船橋市二和西2-6-1,電話：047-447-0023 FAX：047-447-0023,35.7419776,140.0149078
たかね台ベビーホーム,〒274-0065　船橋市高根台1-9-23-201,電話：047-465-1100 FAX：047-465-1100,35.731805,140.0303964
まこと保育園,〒274-0056　船橋市神保町275-34,電話：047-457-1685 FAX：047-457-1687,35.76504750000001,140.0555512
三咲小鳩保育園,〒274-0812　船橋市三咲3-6-2,電話：047-447-7612 FAX：047-447-7667,35.7537096,140.0363527
てまり保育園,〒273-0047　船橋市藤原5-4-39,電話：047-438-0073 FAX：047-438-0039,35.7387913,139.9794495
みどり保育園,〒273-0001　船橋市市場4-12-3,電話：047-424-4152 FAX：047-423-2130,35.7031707,139.9993533
三山つくし保育園,〒274-0072　船橋市三山9-31-7,電話：047-473-4435 FAX：047-493-5272,35.6934253,140.0625981
アンデルセン保育園,〒274-0063　船橋市習志野台7-8-21,電話：047-462-8111 FAX：047-462-8112,35.7275016,140.0521695
やまびこ保育園,〒274-0807　船橋市咲が丘2-11-5,電話：047-449-0225 FAX：047-449-0226,35.7606839,140.0222744
弥生保育園,〒273-0035　船橋市本中山3-4-18,電話：047-332-7280 FAX：047-332-1033,35.7109802,139.9453477
かもめ保育園,〒274-0814　船橋市新高根6-43-3,電話：047-466-5553 FAX：047-465-5530,35.7272164,140.0257332
かもめ保育園 芝山分園,〒274-0816　船橋市芝山3-10-8(船橋市芝山出張所2F),電話：047-456-4353 FAX：047-456-4354,35.716145,140.0206
前原保育園,〒274-0825　船橋市前原西8-23-5,電話：047-465-2429 FAX：047-469-6423,35.703138,140.0269068
ベル・ナーサリー,〒273-0044　船橋市行田1-49-1,電話：047-430-0086 FAX：047-430-0034,35.7211473,139.9812273
アンデルセン第二保育園,〒274-0063　船橋市習志野台5-43-3,電話：047-468-4686 FAX：047-468-4685,35.7188662,140.0543679
西船みどり保育園,〒273-0031　船橋市西船1-21-50,電話：047-435-4152 FAX：047-435-8590,35.7058632,139.9634397
アリスなかよし保育園,〒273-0031　船橋市西船2-29-28,電話：047-436-1212 FAX：047-436-1211,35.7138845,139.9703142
ロータス保育園,〒273-0047　船橋市藤原5-23-2,電話：047-439-6663 FAX：047-439-6657,35.74046200000001,139.9819027
海神南保育園,〒273-0024　船橋市海神町南1-1627-2,電話：047-411-6543 FAX：047-436-6057,35.7001878,139.9676338
前原ひまわり保育園,〒274-0825　船橋市前原西4-18-19,電話：047-474-7788 FAX：047-411-5655,35.69672610000001,140.0164377
船橋あおぞら保育園,〒274-0812　船橋市三咲3-12-55,電話：047-407-9870 FAX：047-407-9875,35.7530616,140.0324236
船橋あおぞら保育園 分園,〒274-0805　船橋市二和東6-16-10　エバラビル2F,電話：047-440-8977 FAX：047-440-8978,35.755483,140.022931
プレスクール・ベル,〒273-0021　船橋市海神4-23-16,電話：047-410-0311 FAX：047-410-0312,35.7093011,139.97493
夏見台保育園,〒273-0866　船橋市夏見台2-16-1,電話：047-429-7231 FAX：047-439-5963,35.721378,139.9964988
みそら保育園,〒273-0036　船橋市東中山2-1-20,電話：047-302-2505 FAX：047-302-2506,35.7144269,139.9543249
さくら保育園,〒273-0034　船橋市二子町474,電話：047-302-8301 FAX：047-333-3779,35.70966629999999,139.9502143
印内保育園,〒273-0039　船橋市印内2-2-31,電話：047-433-8368 FAX：047-433-8378,35.7148556,139.9649146
ククルなかよし保育園,〒273-0865　船橋市夏見2-11-43,電話：047-424-0101 FAX：047-424-0007,35.7090598,139.9879141
なないろ保育園,〒273-0044　船橋市行田1-39-5,電話：047-407-1201 FAX：047-407-1203,35.7223285,139.9779741
まこと保育園 分園,〒274-0063　船橋市習志野台2-73-9,電話：047-465-0230 FAX：047-465-0230,35.7248649,140.0499336
ローゼンかみやま保育園,〒273-0046　船橋市上山町2-288-1,電話：047-406-6010 FAX：047-401-6745,35.732562,139.9744827
こでまり保育園,〒273-0047　船橋市藤原2-2-22,電話：047-703-7700 FAX：047-703-7701,35.7316179,139.9674996
はさま保育園,〒274-0822　船橋市飯山満町3-1512-1,電話：047-467-1999 FAX：047-401-6878,35.7117295,140.0337286
美しが丘保育園,〒274-0060　船橋市坪井東5-18-30,電話：047-457-8806 FAX：047-457-8807,35.7279902,140.0624543
船橋ピコレール保育園,〒273-0003　船橋市宮本2-6-26,電話：047-425-5057 FAX：047-425-5057,35.694728,139.9910652
なの花保育園,〒274-0822　船橋市飯山満町1-967-1,電話：047-405-9512 FAX：047-405-9513,35.7089934,140.0157512
ベル・ナーサリー・アスール,〒273-0021　船橋市海神3-30-1,電話：047-432-1717 FAX：047-432-1718,35.7094476,139.9778173
たちばな保育園,〒274-0825　船橋市前原西2-24-10（代表）,電話：047-470-3745 FAX：047-470-3746,35.69395859999999,140.0242311
南船橋保育園,〒273-0013　船橋市若松2-3-15,電話：047-401-5115 FAX：047-401-5116,35.6791319,139.9971617
高根台グリーンキディ保育園,〒274-0065　船橋市高根台2-10-5,電話：047-465-5900 FAX：047-465-5899,35.7325494,140.0333569
アポロンの丘,〒274-0063　船橋市習志野台2－59－22,電話：047-404-5427 FAX：047-404-5428,35.7276043,140.0472692
リサ保育園,〒273-0024　船橋市海神町南1-728,電話：047-404-5621 FAX：047-404-5631,35.703436,139.9604635
シーガル保育園,〒274-0822　船橋市飯山満町2-1007-1,電話：047-404-7611 FAX：047-404-7612,35.713454,140.021494
敬心ゆめ保育園,〒273-0002　船橋市東船橋3-15-8,電話：047-411-5725 FAX：047-424-7373,35.7007292,140.0090411
ゆいまーる保育園,〒273-0864　船橋市北本町1-12-8,電話：047-424-7711 FAX：047-424-7713,35.7129199,139.9816164
ナーサリー木の実,〒274-0060　船橋市坪井東4-7-60,電話：047-497-8457 FAX:047-497-8458,35.7244571,140.0625864
丸山旭保育園,〒273-0048　船橋市丸山5-33-25,電話：047-438-3383 FAX：047-438-3384,35.7431081,139.9935858
共同保育所 子どもの家,〒273-0005　船橋市本町5-15-9,電話：047-423-1770 FAX：047-460-3700,35.7025289,139.9901585
あい・あい保育園 宮本園,〒273-0003　船橋市宮本3-9-4,電話：047-401-0271 FAX：047-401-0275,35.690573,139.9947837
あまねの杜保育園,〒273-0044　船橋市行田2-9-10,電話：047-401-5011 FAX：047-401-5021,35.7227772,139.9721272
東船橋ちとせ保育園,〒273-0002　船橋市東船橋1-16-25,電話：047-423-5717 FAX：047-423-5718,35.6973485,140.0046507
船橋どろんこ保育園,〒273-0005　船橋市本町6-8-9,電話：047-429-8140 FAX：047-429-8141,35.7055136,139.9861342
グローバルキッズ コトニア西船橋園,〒273-0036　船橋市東中山1-19-13,電話：047-336-6661 FAX：047-318-3317,35.7121752,139.9485808
船橋ハーモニー保育園,〒274-0824　船橋市前原東5-8-8,電話：047-429-8802 FAX：047-429-8801,35.7036449,140.0334566
ミアヘルサ保育園ひびき新船橋,〒273-0021　船橋市海神3-26-30,電話：047-401-3875 FAX：047-401-3876,35.709624,139.979326
えがおの森保育園・にしふなばし,〒273-0033　船橋市本郷町430,電話：047-332-0581 FAX：047-332-0582,35.70780209999999,139.9547175
薬園台・学びの保育園,〒274-0077　船橋市薬円台5-6-7,電話：047-402-4680 FAX：047-402-4681,35.7102433,140.0390976
あい・あい保育園 北習志野園,〒274-0815　船橋市西習志野3-27-7,電話：047-404-7771 FAX：047-404-7772,35.7213755,140.0416589
船橋光の子保育園,〒273-0048　船橋市丸山1-3-3,電話：047-406-7055 FAX：047-406-7056,35.7436048,139.9912462
ブルゥミング保育園,〒273-0003　船橋市宮本1-8-11,電話：047-409-9996 FAX：047-409-9997,35.6995599,139.9917677
そらまめ保育園 新船橋,〒273-0864　船橋市北本町1-17-22,電話：047-455-8682 FAX：047-455-8683,35.7099473,139.9827696
グリュック保育園,〒273-0002　船橋市東船橋1-26-10,電話：047-424-3741 FAX:047-455-3457,35.6973485,140.0046507
あい・あい保育園 船橋法典園,〒273-0046　船橋市上山町1-223-4,電話：047-382-5357 FAX：047-382-5358,35.7311739,139.9703229
あい・あい保育園 西船橋園,〒273-0031　船橋市西船5-26-25　2・3階,電話：047-307-9202 FAX：047-307-9203,35.7098729,139.9569955
船橋法典すきっぷ保育園,〒273-0047　船橋市藤原1-3-10,電話：047-382-5917 FAX：047-382-5918,35.7293702,139.9635814
ゆめのもり保育園,〒274-0825　船橋市前原西7-1-19,電話：047-406-4700 FAX:047-406-4702,35.6978481,140.0249668
塚田ここわ保育園,〒273-0864　船橋市北本町2-41-20,電話：047-407-0243 FAX：047-407-0244,35.7191699,139.9811402
にじいろ保育園 薬円台,〒274-0077　船橋市薬円台1-24-1,電話：047-402-4033 FAX：047-402-4034,35.7078143,140.0431498
まなびの森保育園 飯山満,〒274-0823　船橋市二宮1-71-30,電話：047-466-7788 FAX：047-466-7788,35.7109217,140.0275887
船橋どろんこ保育園 分園,〒273-0005　船橋市本町5-18-25,電話：047-409-2871 FAX：047-409-2872,35.7014346,139.9892594
太陽の子 塚田保育園,〒273-0043　船橋市行田町352-5,電話：047-406-6006 FAX：047-406-6007,35.7233306,139.9811933
りんごのき保育園,〒273-0002　船橋市東船橋1-24-15　グレイス東船橋1階,電話：047-411-8054 FAX：047-413-0666,35.6983525,140.0041162
新船橋ここわ保育園,〒273-0021　船橋市海神5-29-61,電話：047-402-6431 FAX：047-402-6451,35.7112993,139.9702804
西船橋すきっぷ保育園,〒273-0031　船橋市西船4-12-20,電話：047-401-6251 FAX：047-401-6252,35.7102264,139.9597716
ラブキッズ,〒273-0044　船橋市行田3-2-21,電話：047-429-1212 FAX：047-429-1414,35.7184533,139.9707011
まなびの森保育園 東船橋,〒273-0002　船橋市東船橋1-18-12,電話：047-411-1155 FAX：047-411-1155,35.6981874,140.0022367
たんぽぽ西船橋駅前保育園,〒273-0025　船橋市印内町631-1,電話：047-420-3017 FAX：047-420-3018,35.7050271,139.9576134
ゆめわかば保育園,〒274-0824　船橋市前原東2-18-41,電話：047-406-4421 FAX：047-406-4422,35.6978283,140.0311049
たんぽぽ海神町南保育園,〒273-0024　船橋市海神町南1‐1428‐20,電話：047-495-6200 FAX：047-495-6201,35.702167,139.9631021
船橋くれよん保育園,〒274-0060　船橋市坪井東2‐13－27,電話：047-460-9926 FAX：047-460-9928,35.7293129,140.0599654
Milky Way International Nursery School 新船橋校,〒273-0865　船橋市夏見3-20-11,電話：047-455-3225 FAX：047-455-3226,35.7135725,139.986531
西船橋雲母保育園,〒273-0033　船橋市本郷町456-1,電話：047-709-4300 FAX：047-709-4301,35.7081841,139.9536589
そらまめ保育園 西船橋,〒273-0021　船橋市海神6-16-11,電話：047-497-8285 FAX：047-497-8286,35.7062407,139.9686622
まなびの森保育園 船橋競馬場駅前,〒273-0003　船橋市宮本9-1-11,電話：047-402-4402 FAX：047-402-4402,35.6895785,139.9970893
ポポラー千葉新船橋園,〒273-0864　船橋市北本町1-12-17　プラウド船橋クラブハウス2階,電話：047-460-3040 FAX：047-460-3041,35.711967,139.9815336
船橋うめのき保育園,〒273-0046　船橋市上山町1-225-3,電話：047-710-5431 FAX：047-710-5438,35.7309558,139.9702129
ミアヘルサ保育園ひびき新船橋北,〒273-0045　船橋市山手1-1-11,電話：047-498-9370 FAX：047-498-9371,35.7134013,139.9770724
船橋馬込沢雲母保育園,〒273-0046　船橋市上山町2-487-1,電話：047-430-2424 FAX：047-430-2425,35.7362892,139.9803787
船橋こどもの木保育園,〒274-0815　船橋市西習志野2-6-1,電話：047-468-8207 FAX：047-468-8208,35.7254832,140.0352901
京進のほいくえん HOPPA前原西,〒274-0825　船橋市前原西4-12-15,電話：047-489-5260 FAX：047-489-5261,35.698313,140.0153968
ここみ保育園,〒273-0021　船橋市海神1-8-9,電話：047-432-2904 FAX：047-432-2904,35.7003314,139.9803851
